[{"OBJECT_NAME":"ONEWEB-0582","OBJECT_ID":"2022-166H","EPOCH":"2026-04-14T04:01:32.883744","MEAN_MOTION":13.21824703,"ECCENTRICITY":0.0001722,"INCLINATION":87.9193,"RA_OF_ASC_NODE":256.7258,"ARG_OF_PERICENTER":119.0556,"MEAN_ANOMALY":241.0751,"EPHEMERIS_TYPE":0,"CLASSIFICATION_TYPE":"U","NORAD_CAT_ID":54649,"ELEMENT_SET_NO":999,"REV_AT_EPOCH":16306,"BSTAR":0.00024971,"MEAN_MOTION_DOT":1.16e-06,"MEAN_MOTION_DDOT":0.0},{"OBJECT_NAME":"ONEWEB-0583","OBJECT_ID":"2022-166J","EPOCH":"2026-04-14T04:18:32.163552","MEAN_MOTION":13.21826485,"ECCENTRICITY":0.0001844,"INCLINATION":87.9191,"RA_OF_ASC_NODE":256.7468,"ARG_OF_PERICENTER":102.9502,"MEAN_ANOMALY":257.1838,"EPHEMERIS_TYPE":0,"CLASSIFICATION_TYPE":"U","NORAD_CAT_ID":54650,"ELEMENT_SET_NO":999,"REV_AT_EPOCH":16307,"BSTAR":-6.793200000000001e-05,"MEAN_MOTION_DOT":-1.5e-07,"MEAN_MOTION_DDOT":0.0},{"OBJECT_NAME":"ONEWEB-0584","OBJECT_ID":"2022-166K","EPOCH":"2026-04-14T02:58:36.288768","MEAN_MOTION":13.21828604,"ECCENTRICITY":0.0001726,"INCLINATION":87.9191,"RA_OF_ASC_NODE":256.7448,"ARG_OF_PERICENTER":104.5349,"MEAN_ANOMALY":255.5977,"EPHEMERIS_TYPE":0,"CLASSIFICATION_TYPE":"U","NORAD_CAT_ID":54651,"ELEMENT_SET_NO":999,"REV_AT_EPOCH":16305,"BSTAR":4.1867e-05,"MEAN_MOTION_DOT":3e-07,"MEAN_MOTION_DDOT":0.0},{"OBJECT_NAME":"ONEWEB-0585","OBJECT_ID":"2022-166L","EPOCH":"2026-04-14T03:32:27.972672","MEAN_MOTION":13.21825029,"ECCENTRICITY":0.0001871,"INCLINATION":87.9191,"RA_OF_ASC_NODE":256.7245,"ARG_OF_PERICENTER":93.7529,"MEAN_ANOMALY":266.3819,"EPHEMERIS_TYPE":0,"CLASSIFICATION_TYPE":"U","NORAD_CAT_ID":54652,"ELEMENT_SET_NO":999,"REV_AT_EPOCH":16306,"BSTAR":5.8324e-06,"MEAN_MOTION_DOT":1.5e-07,"MEAN_MOTION_DDOT":0.0},{"OBJECT_NAME":"ONEWEB-0586","OBJECT_ID":"2022-166M","EPOCH":"2026-04-13T16:57:49.405248","MEAN_MOTION":13.21826565,"ECCENTRICITY":0.0001872,"INCLINATION":87.9196,"RA_OF_ASC_NODE":256.8388,"ARG_OF_PERICENTER":104.4542,"MEAN_ANOMALY":255.6799,"EPHEMERIS_TYPE":0,"CLASSIFICATION_TYPE":"U","NORAD_CAT_ID":54653,"ELEMENT_SET_NO":999,"REV_AT_EPOCH":16300,"BSTAR":4.9755e-05,"MEAN_MOTION_DOT":3.4e-07,"MEAN_MOTION_DDOT":0.0},{"OBJECT_NAME":"ONEWEB-0587","OBJECT_ID":"2022-166N","EPOCH":"2026-04-14T04:06:24.982272","MEAN_MOTION":13.2182446,"ECCENTRICITY":0.0001875,"INCLINATION":87.9209,"RA_OF_ASC_NODE":256.7134,"ARG_OF_PERICENTER":86.5717,"MEAN_ANOMALY":273.5632,"EPHEMERIS_TYPE":0,"CLASSIFICATION_TYPE":"U","NORAD_CAT_ID":54654,"ELEMENT_SET_NO":999,"REV_AT_EPOCH":16322,"BSTAR":0.00079035,"MEAN_MOTION_DOT":3.39e-06,"MEAN_MOTION_DDOT":0.0},{"OBJECT_NAME":"ONEWEB-0589","OBJECT_ID":"2022-166P","EPOCH":"2026-04-14T03:46:59.902464","MEAN_MOTION":13.21827023,"ECCENTRICITY":0.0001859,"INCLINATION":87.9194,"RA_OF_ASC_NODE":256.7366,"ARG_OF_PERICENTER":126.6842,"MEAN_ANOMALY":233.4463,"EPHEMERIS_TYPE":0,"CLASSIFICATION_TYPE":"U","NORAD_CAT_ID":54655,"ELEMENT_SET_NO":999,"REV_AT_EPOCH":16308,"BSTAR":4.0957e-05,"MEAN_MOTION_DOT":3e-07,"MEAN_MOTION_DDOT":0.0},{"OBJECT_NAME":"ONEWEB-0590","OBJECT_ID":"2022-166Q","EPOCH":"2026-04-14T04:23:10.634208","MEAN_MOTION":13.21826381,"ECCENTRICITY":0.0001349,"INCLINATION":87.9202,"RA_OF_ASC_NODE":256.7154,"ARG_OF_PERICENTER":98.4498,"MEAN_ANOMALY":261.6789,"EPHEMERIS_TYPE":0,"CLASSIFICATION_TYPE":"U","NORAD_CAT_ID":54656,"ELEMENT_SET_NO":999,"REV_AT_EPOCH":16307,"BSTAR":-4.4768e-05,"MEAN_MOTION_DOT":-5e-08,"MEAN_MOTION_DDOT":0.0},{"OBJECT_NAME":"ONEWEB-0591","OBJECT_ID":"2022-166R","EPOCH":"2026-04-13T19:35:19.410432","MEAN_MOTION":13.21826338,"ECCENTRICITY":0.0001751,"INCLINATION":87.9194,"RA_OF_ASC_NODE":256.8082,"ARG_OF_PERICENTER":98.8462,"MEAN_ANOMALY":261.287,"EPHEMERIS_TYPE":0,"CLASSIFICATION_TYPE":"U","NORAD_CAT_ID":54657,"ELEMENT_SET_NO":999,"REV_AT_EPOCH":16305,"BSTAR":0.00025452000000000005,"MEAN_MOTION_DOT":1.18e-06,"MEAN_MOTION_DDOT":0.0},{"OBJECT_NAME":"ONEWEB-0592","OBJECT_ID":"2022-166S","EPOCH":"2026-04-14T02:56:10.415328","MEAN_MOTION":13.2182664,"ECCENTRICITY":0.0001765,"INCLINATION":87.9195,"RA_OF_ASC_NODE":256.7198,"ARG_OF_PERICENTER":98.1217,"MEAN_ANOMALY":262.0118,"EPHEMERIS_TYPE":0,"CLASSIFICATION_TYPE":"U","NORAD_CAT_ID":54658,"ELEMENT_SET_NO":999,"REV_AT_EPOCH":16297,"BSTAR":0.00015543000000000002,"MEAN_MOTION_DOT":7.7e-07,"MEAN_MOTION_DDOT":0.0},{"OBJECT_NAME":"ONEWEB-0593","OBJECT_ID":"2022-166T","EPOCH":"2026-04-14T03:27:37.095840","MEAN_MOTION":13.21824374,"ECCENTRICITY":0.0001964,"INCLINATION":87.9196,"RA_OF_ASC_NODE":256.7316,"ARG_OF_PERICENTER":102.454,"MEAN_ANOMALY":257.6814,"EPHEMERIS_TYPE":0,"CLASSIFICATION_TYPE":"U","NORAD_CAT_ID":54659,"ELEMENT_SET_NO":999,"REV_AT_EPOCH":16308,"BSTAR":9.6327e-05,"MEAN_MOTION_DOT":5.3e-07,"MEAN_MOTION_DDOT":0.0},{"OBJECT_NAME":"ONEWEB-0594","OBJECT_ID":"2022-166U","EPOCH":"2026-04-14T03:56:41.186976","MEAN_MOTION":13.21826169,"ECCENTRICITY":0.0001843,"INCLINATION":87.9193,"RA_OF_ASC_NODE":256.7452,"ARG_OF_PERICENTER":95.8062,"MEAN_ANOMALY":264.3283,"EPHEMERIS_TYPE":0,"CLASSIFICATION_TYPE":"U","NORAD_CAT_ID":54660,"ELEMENT_SET_NO":999,"REV_AT_EPOCH":16310,"BSTAR":-1.3607e-05,"MEAN_MOTION_DOT":7e-08,"MEAN_MOTION_DDOT":0.0},{"OBJECT_NAME":"ONEWEB-0595","OBJECT_ID":"2022-166V","EPOCH":"2026-04-14T03:22:46.640640","MEAN_MOTION":13.21823587,"ECCENTRICITY":0.0001772,"INCLINATION":87.9204,"RA_OF_ASC_NODE":256.7253,"ARG_OF_PERICENTER":92.3816,"MEAN_ANOMALY":267.7521,"EPHEMERIS_TYPE":0,"CLASSIFICATION_TYPE":"U","NORAD_CAT_ID":54661,"ELEMENT_SET_NO":999,"REV_AT_EPOCH":16307,"BSTAR":-7.9979e-05,"MEAN_MOTION_DOT":-2e-07,"MEAN_MOTION_DDOT":0.0},{"OBJECT_NAME":"ONEWEB-0596","OBJECT_ID":"2022-166W","EPOCH":"2026-04-14T02:46:29.312256","MEAN_MOTION":13.21826911,"ECCENTRICITY":0.0001808,"INCLINATION":87.9195,"RA_OF_ASC_NODE":256.7458,"ARG_OF_PERICENTER":95.8757,"MEAN_ANOMALY":264.2583,"EPHEMERIS_TYPE":0,"CLASSIFICATION_TYPE":"U","NORAD_CAT_ID":54662,"ELEMENT_SET_NO":999,"REV_AT_EPOCH":16307,"BSTAR":-2.0396000000000003e-05,"MEAN_MOTION_DOT":5e-08,"MEAN_MOTION_DDOT":0.0},{"OBJECT_NAME":"ONEWEB-0597","OBJECT_ID":"2022-166X","EPOCH":"2026-04-14T04:08:50.680320","MEAN_MOTION":13.21826236,"ECCENTRICITY":0.0001854,"INCLINATION":87.9193,"RA_OF_ASC_NODE":256.7387,"ARG_OF_PERICENTER":103.0485,"MEAN_ANOMALY":257.0856,"EPHEMERIS_TYPE":0,"CLASSIFICATION_TYPE":"U","NORAD_CAT_ID":54663,"ELEMENT_SET_NO":999,"REV_AT_EPOCH":16308,"BSTAR":-3.9659e-05,"MEAN_MOTION_DOT":-3e-08,"MEAN_MOTION_DDOT":0.0},{"OBJECT_NAME":"ONEWEB-0600","OBJECT_ID":"2022-166Y","EPOCH":"2026-04-13T20:26:08.678112","MEAN_MOTION":13.21826058,"ECCENTRICITY":0.0002023,"INCLINATION":87.9197,"RA_OF_ASC_NODE":256.794,"ARG_OF_PERICENTER":100.1512,"MEAN_ANOMALY":259.985,"EPHEMERIS_TYPE":0,"CLASSIFICATION_TYPE":"U","NORAD_CAT_ID":54664,"ELEMENT_SET_NO":999,"REV_AT_EPOCH":16301,"BSTAR":-0.00093796,"MEAN_MOTION_DOT":-3.74e-06,"MEAN_MOTION_DDOT":0.0}]