ONEWEB-0582             
1 54649U 22166H   26104.16774171  .00000116  00000+0  24971-3 0  9995
2 54649  87.9193 256.7258 0001722 119.0556 241.0751 13.21824703163068
ONEWEB-0583             
1 54650U 22166J   26104.17953893 -.00000015  00000+0 -67932-4 0  9993
2 54650  87.9191 256.7468 0001844 102.9502 257.1838 13.21826485163072
ONEWEB-0584             
1 54651U 22166K   26104.12403112  .00000030  00000+0  41867-4 0  9997
2 54651  87.9191 256.7448 0001726 104.5349 255.5977 13.21828604163056
ONEWEB-0585             
1 54652U 22166L   26104.14754598  .00000015  00000+0  58324-5 0  9997
2 54652  87.9191 256.7245 0001871  93.7529 266.3819 13.21825029163066
ONEWEB-0586             
1 54653U 22166M   26103.70682182  .00000034  00000+0  49755-4 0  9996
2 54653  87.9196 256.8388 0001872 104.4542 255.6799 13.21826565163005
ONEWEB-0587             
1 54654U 22166N   26104.17112248  .00000339  00000+0  79035-3 0  9991
2 54654  87.9209 256.7134 0001875  86.5717 273.5632 13.21824460163227
ONEWEB-0589             
1 54655U 22166P   26104.15763776  .00000030  00000+0  40957-4 0  9998
2 54655  87.9194 256.7366 0001859 126.6842 233.4463 13.21827023163084
ONEWEB-0590             
1 54656U 22166Q   26104.18276197 -.00000005  00000+0 -44768-4 0  9996
2 54656  87.9202 256.7154 0001349  98.4498 261.6789 13.21826381163076
ONEWEB-0591             
1 54657U 22166R   26103.81619688  .00000118  00000+0  25452-3 0  9993
2 54657  87.9194 256.8082 0001751  98.8462 261.2870 13.21826338163057
ONEWEB-0592             
1 54658U 22166S   26104.12234277  .00000077  00000+0  15543-3 0  9990
2 54658  87.9195 256.7198 0001765  98.1217 262.0118 13.21826640162972
ONEWEB-0593             
1 54659U 22166T   26104.14417935  .00000053  00000+0  96327-4 0  9991
2 54659  87.9196 256.7316 0001964 102.4540 257.6814 13.21824374163083
ONEWEB-0594             
1 54660U 22166U   26104.16436559  .00000007  00000+0 -13607-4 0  9998
2 54660  87.9193 256.7452 0001843  95.8062 264.3283 13.21826169163105
ONEWEB-0595             
1 54661U 22166V   26104.14081760 -.00000020  00000+0 -79979-4 0  9997
2 54661  87.9204 256.7253 0001772  92.3816 267.7521 13.21823587163077
ONEWEB-0596             
1 54662U 22166W   26104.11561704  .00000005  00000+0 -20396-4 0  9997
2 54662  87.9195 256.7458 0001808  95.8757 264.2583 13.21826911163070
ONEWEB-0597             
1 54663U 22166X   26104.17280880 -.00000003  00000+0 -39659-4 0  9998
2 54663  87.9193 256.7387 0001854 103.0485 257.0856 13.21826236163085
ONEWEB-0600             
1 54664U 22166Y   26103.85148933 -.00000374  00000+0 -93796-3 0  9997
2 54664  87.9197 256.7940 0002023 100.1512 259.9850 13.21826058163013
